{"type":"FeatureCollection","features":[{"type":"Feature","properties":{"id":742,"nomor_ruas":"VI.50","nama_ruas":"JL TERTEK","titik_awal":"VI.30","titik_akhir":"I.31","panjang_km":0,"lebar_m":0},"geometry":{"type":"LineString","coordinates":[[0,0],[0,0]]}},{"type":"Feature","properties":{"id":746,"nomor_ruas":"III.36","nama_ruas":"NANGKOD-SAMBONG","titik_awal":"III.40","titik_akhir":"III.38","panjang_km":0,"lebar_m":0},"geometry":{"type":"LineString","coordinates":[[0,0],[0,0]]}},{"type":"Feature","properties":{"id":751,"nomor_ruas":"V.40","nama_ruas":"PEKASIRAN-BTS KAB.BATANG","titik_awal":"V.31","titik_akhir":"BTS Kab.Batang","panjang_km":0,"lebar_m":0},"geometry":{"type":"LineString","coordinates":[[0,0],[0,0]]}}]}